[{"OBJECT_NAME":"STARLINK-30948","OBJECT_ID":"2023-191T","EPOCH":"2026-03-09T11:48:10.828800","MEAN_MOTION":15.26742007,"ECCENTRICITY":0.00013517,"INCLINATION":43.0032,"RA_OF_ASC_NODE":104.3273,"ARG_OF_PERICENTER":273.7226,"MEAN_ANOMALY":86.3471,"EPHEMERIS_TYPE":0,"CLASSIFICATION_TYPE":"U","NORAD_CAT_ID":58525,"ELEMENT_SET_NO":999,"REV_AT_EPOCH":12544,"BSTAR":2.0956294e-5,"MEAN_MOTION_DOT":3.02e-6,"MEAN_MOTION_DDOT":0},{"OBJECT_NAME":"CZ-4C R\/B","OBJECT_ID":"2022-039B","EPOCH":"2026-03-09T15:51:32.485824","MEAN_MOTION":15.03008334,"ECCENTRICITY":0.0113659,"INCLINATION":98.2525,"RA_OF_ASC_NODE":105.9247,"ARG_OF_PERICENTER":45.8852,"MEAN_ANOMALY":315.1654,"EPHEMERIS_TYPE":0,"CLASSIFICATION_TYPE":"U","NORAD_CAT_ID":52258,"ELEMENT_SET_NO":999,"REV_AT_EPOCH":21291,"BSTAR":0.00022979194,"MEAN_MOTION_DOT":3.483e-5,"MEAN_MOTION_DDOT":0}]
